GLOBALSTAR M057 [-]     
1 25943U 99058A   24052.54629844 -.00000037  00000+0  50938-3 0  9997
2 25943  51.9968 275.0441 0003430  90.2627 269.8615 12.24780179107918
GLOBALSTAR M059 [-]     
1 25944U 99058B   24052.82299502 -.00000012  00000+0  91811-3 0  9991
2 25944  52.0019  69.3918 0000635 122.6889  49.0021 11.99963942105004
GLOBALSTAR M056 [-]     
1 25945U 99058C   24052.38527024 -.00000111  00000+0 -27086-3 0  9990
2 25945  51.9962  84.9117 0000689 286.2687  87.3472 12.04773276104556
GLOBALSTAR M031 [-]     
1 25946U 99058D   24052.59488295 -.00000092  00000+0 -11301-4 0  9992
2 25946  51.9995   5.4831 0001194 292.5033 238.7928 12.16003844105954
GLOBALSTAR M039 [-]     
1 25961U 99062A   24052.42468274 -.00000034  00000+0  38978-3 0  9994
2 25961  51.9848 296.0197 0003141  14.4285 345.6671 12.62282829119372
GLOBALSTAR M034 [-]     
1 25962U 99062B   24052.65005968 -.00000121  00000+0 -64127-3 0  9990
2 25962  51.9856 183.0784 0014017 208.1895 164.8212 11.79423960 81574
GLOBALSTAR M029 [-]     
1 25963U 99062C   24052.46584161 -.00000060  00000+0  32049-3 0  9996
2 25963  51.9826 318.8115 0001932 255.4713 275.8548 11.99873946111297
GLOBALSTAR M061 [-]     
1 25964U 99062D   24052.17797942 -.00000081  00000+0 -12559-4 0  9997
2 25964  51.9827   1.9541 0006065 135.8759 327.6984 11.76758701 64434
